# From MPC106342
C/1995 O1 (Hale-Bopp),e,88.9849,283.3720,130.6073,180.0891,0.0004078,0.99493418,0.0000,03/29.6799/1997,2000,g -2.0,4.0
# From NK 1615
P/1996 R2 (Lagerkvist),e,2.6003,40.0411,333.2952,3.774772,0.1343903,0.31389767,65.7810,06/15.0/2020,2000,g 11.5,4.0
# From MPC 30063
P/1997 B1 (Kobayashi),e,12.3400,328.8898,183.3828,8.562225,0.0393391,0.76005512,334.3574,06/15.0/2020,2000,g 15.0,2.0
# From MPC 75703
P/1998 VS24 (LINEAR),e,5.0245,159.0300,244.7224,4.530535,0.1022068,0.24177331,89.8393,06/15.0/2020,2000,g 13.0,2.0
# From NK 731
P/1999 RO28 (LONEOS),e,7.5661,137.8824,231.2745,3.426694,0.1553785,0.67194293,55.1525,06/15.0/2020,2000,g 20.0,2.0
# From MPC 75704
P/1999 XN120 (Catalina),e,5.0296,285.2965,161.9442,4.179095,0.1153667,0.21046654,126.8750,06/15.0/2020,2000,g 13.5,2.0
# From NK 744
P/2000 R2 (LINEAR),e,11.6836,160.3008,176.4931,3.465362,0.1527852,0.53151150,55.5593,06/15.0/2020,2000,g 18.0,4.0
# From MPC 43019
P/2001 H5 (NEAT),e,8.3681,328.6873,224.8759,6.098266,0.0654477,0.59892299,111.2489,06/15.0/2020,2000,g 12.0,4.0
# From MPC 75704
P/2001 Q6 (NEAT),e,56.8954,22.1053,42.9609,7.948485,0.0439823,0.82269487,300.4313,06/15.0/2020,2000,g 13.5,4.0
# From MPC 47727
P/2002 EJ57 (LINEAR),e,4.9757,330.3431,167.3255,6.473993,0.0598337,0.59317005,43.5119,06/15.0/2020,2000,g 12.5,4.0
# From MPC109588
P/2002 T5 (LINEAR),e,30.8531,123.0884,326.7940,7.002078,0.0531941,0.43766672,330.8033,06/15.0/2020,2000,g  8.0,4.0
# From MPC109588
P/2002 T6 (NEAT-LINEAR),e,10.8336,206.6057,219.4959,7.663915,0.0464545,0.55964316,290.2882,06/15.0/2020,2000,g 10.5,4.0
# From MPC 75007
C/2002 VQ94 (LINEAR),e,70.5327,34.9794,100.1951,186.7087,0.0003863,0.96338648,2.0290,06/15.0/2020,2000,g  9.5,2.0
# From MPC 50354
P/2003 F2 (NEAT),e,11.6055,359.0885,191.8555,6.485591,0.0596732,0.54202537,12.8839,06/15.0/2020,2000,g 16.5,2.0
# From MPC 50139
P/2003 QX29 (NEAT),e,11.3899,264.6021,37.3345,8.036487,0.0432618,0.47289213,278.8122,06/15.0/2020,2000,g  8.5,4.0
# From MPC105235
P/2003 T12 (SOHO),e,11.0160,174.5748,219.7717,2.586135,0.2369885,0.76960870,9.2765,06/15.0/2020,2000,g 17.0,4.0
# From MPC 82312
P/2004 A1 (LONEOS),e,10.5517,124.8491,21.5095,7.951972,0.0439533,0.30951072,253.9130,06/15.0/2020,2000,g  6.5,4.0
# From MPC 54558
P/2004 DO29 (Spacewatch-LINEAR),e,14.5313,147.3880,40.7590,7.280715,0.0501699,0.44153450,287.2243,06/15.0/2020,2000,g 13.5,2.0
# From MPC 54823
P/2004 FY140 (LINEAR),e,2.1348,326.7628,242.4844,4.900423,0.0908560,0.16893567,162.2519,06/15.0/2020,2000,g 12.5,2.0
# From MPC 53304
P/2004 R3 (LINEAR-NEAT),e,12.8160,305.5003,39.4032,4.779660,0.0943210,0.26074804,315.3314,06/15.0/2020,2000,g 14.5,4.0
# From MPC 55521
P/2004 V3 (Siding Spring),e,50.4246,356.1099,322.2616,7.146429,0.0515906,0.44626901,295.2643,06/15.0/2020,2000,g 11.5,4.0
# From MPC 75705
P/2004 V5 (LINEAR-Hill),e,19.3478,47.7554,87.8529,7.972918,0.0437802,0.44358847,245.1910,06/15.0/2020,2000,g  8.0,4.0
# From MPC 54164
P/2005 E1 (Tubbiolo),e,4.2637,335.5791,194.1749,7.035109,0.0528199,0.37529465,296.4997,06/15.0/2020,2000,g 10.0,4.0
# From MPC 54823
P/2005 GF8 (LONEOS),e,1.1935,314.8380,285.3446,5.875212,0.0692100,0.51842137,17.9042,06/15.0/2020,2000,g 11.5,4.0
# From MPC 79019
P/2005 J1 (McNaught),e,31.7692,268.7973,338.9475,3.569238,0.1461641,0.57005967,89.3338,06/15.0/2020,2000,g 16.5,4.0
# From MPC 74246
P/2005 L1 (McNaught),e,7.7385,138.2467,149.6516,3.975778,0.1243286,0.20933022,297.1626,06/15.0/2020,2000,g  9.5,4.0
# From MPC 75706
P/2005 S2 (Skiff),e,3.1356,161.1866,229.1814,8.019095,0.0434026,0.19646905,223.6573,06/15.0/2020,2000,g  7.5,4.0
# From MPC 75706
P/2005 SB216 (LONEOS),e,24.0646,1.2722,83.4098,7.124895,0.0518247,0.46300617,253.9400,06/15.0/2020,2000,g 12.0,2.0
# From MPC 55717
P/2005 T2 (Christensen),e,8.2927,260.1575,58.8040,3.846648,0.1306413,0.41654211,8.8368,06/15.0/2020,2000,g 14.5,4.0
# From MPC 73461
P/2005 T3 (Read),e,6.2261,27.7712,7.2176,7.573319,0.0472906,0.17357041,252.8890,06/15.0/2020,2000,g  9.0,4.0
# From MPC 73461
P/2005 T4 (SWAN),e,160.1554,25.6008,41.5052,9.360290,0.0344168,0.93007577,184.9703,06/15.0/2020,2000,g 15.0,4.0
# From MPC 75706
P/2005 T5 (Broughton),e,21.3462,57.0131,304.4940,7.293139,0.0500417,0.55169365,268.6145,06/15.0/2020,2000,g 11.0,4.0
# From MPC 56954
P/2005 W3 (Kowalski),e,16.4133,210.1137,200.5906,6.336984,0.0617846,0.54362901,331.4239,06/15.0/2020,2000,g 12.0,4.0
# From MPC 75706
P/2005 XA54 (LONEOS-Hill),e,17.1184,143.6729,15.1474,6.051301,0.0662111,0.71016221,344.8841,06/15.0/2020,2000,g 14.0,4.0
# From MPC 75706
P/2005 Y2 (McNaught),e,19.1077,94.5168,194.1416,6.367388,0.0613426,0.46907443,352.1256,06/15.0/2020,2000,g  9.0,4.0
# From MPC 56954
P/2006 F4 (Spacewatch),e,12.3887,183.9527,31.2444,3.529531,0.1486376,0.33899859,47.1329,06/15.0/2020,2000,g 15.0,4.0
# From MPC 58118
P/2006 H1 (McNaught),e,12.8051,359.8916,309.2797,5.770944,0.0710941,0.58019253,13.5423,06/15.0/2020,2000,g 12.5,4.0
# From MPC 75707
P/2006 HR30 (Siding Spring),e,31.8319,309.8970,117.2990,7.811260,0.0451463,0.84179883,222.6036,06/15.0/2020,2000,g 11.0,4.0
# From MPC 75707
P/2006 S4 (Christensen),e,39.5405,36.1017,305.1589,6.307760,0.0622145,0.50768968,323.9862,06/15.0/2020,2000,g 11.0,4.0
# From MPC 75707
P/2007 A2 (Christensen),e,26.4876,300.9059,186.7917,6.321587,0.0620104,0.55744697,304.3400,06/15.0/2020,2000,g 13.5,4.0
# From MPC 59319
P/2007 B1 (Christensen),e,12.3771,77.6669,46.7690,5.817603,0.0702406,0.58081302,344.2175,06/15.0/2020,2000,g 13.5,4.0
# From MPC 75707
P/2007 C2 (Catalina),e,8.6785,275.7092,179.7534,6.998766,0.0532319,0.46902093,247.4663,06/15.0/2020,2000,g 10.0,4.0
# From MPC 84315
C/2007 D1 (LINEAR),e,41.5008,171.1473,340.1729,1696,0.0000141,0.99479103,0.0000,06/10.9649/2007,2000,g  3.5,4.0
# From MPC 82314
P/2007 K2 (Gibbs),e,7.6408,188.6495,347.4940,7.260229,0.0503824,0.68364504,239.5751,06/15.0/2020,2000,g 14.0,4.0
# From MPC 60925
P/2007 Q2 (Gilmore),e,10.2006,172.1764,162.7818,5.657662,0.0732400,0.67045818,347.9147,06/15.0/2020,2000,g 16.0,4.0
# From MPC 75708
P/2007 R2 (Gibbs),e,1.2165,11.4313,352.3706,3.573811,0.1458837,0.54234736,346.4052,06/15.0/2020,2000,g 17.0,4.0
# From MPC 75708
P/2007 R4 (Garradd),e,20.2332,87.2194,282.7356,5.918303,0.0684555,0.66980235,322.8973,06/15.0/2020,2000,g 14.5,4.0
# From MPC 73462
P/2007 S1 (Zhao),e,5.9627,141.3923,245.8222,3.810772,0.1324904,0.33975127,247.9289,06/15.0/2020,2000,g 13.0,4.0
# From MPC 61994
P/2007 T2 (Kowalski),e,9.7412,3.3781,359.6343,3.047424,0.1852699,0.78506786,128.2849,06/15.0/2020,2000,g 18.5,4.0
# From MPC 75708
P/2007 VQ11 (Catalina),e,12.3201,163.8184,277.6817,5.425002,0.0780017,0.50316753,352.5853,06/15.0/2020,2000,g 12.0,4.0
# From MPC 75708
P/2008 CL94 (Lemmon),e,8.3485,33.3409,80.6531,6.158807,0.0644851,0.12006851,329.9791,06/15.0/2020,2000,g  8.0,4.0
# From MPC 75709
P/2008 L2 (Hill),e,25.8504,218.0038,141.1988,6.028887,0.0665807,0.61282179,289.3932,06/15.0/2020,2000,g 12.5,4.0
# From MPC 64114
P/2008 O3 (Boattini),e,32.2286,47.6101,341.0776,8.225112,0.0417822,0.69466760,184.1601,06/15.0/2020,2000,g 13.0,4.0
# From MPC 75709
P/2008 QP20 (LINEAR-Hill),e,7.5176,322.1171,75.7319,3.548363,0.1474559,0.49288532,276.5333,06/15.0/2020,2000,g 15.5,4.0
# From MPC 66204
P/2008 WZ96 (LINEAR),e,7.1231,56.6003,341.7923,3.491685,0.1510607,0.47127595,293.9269,06/15.0/2020,2000,g 13.5,4.0
# From MPC 75710
P/2008 Y3 (McNaught),e,38.7593,262.7804,238.3234,8.045016,0.0431930,0.44566381,180.7982,06/15.0/2020,2000,g  8.5,4.0
# From MPC 75710
P/2009 B1 (Boattini),e,22.2184,297.0927,128.9191,6.734704,0.0563931,0.63447601,235.3430,06/15.0/2020,2000,g 13.0,4.0
# From MPC 66466
C/2009 G1 (STEREO),e,108.7506,120.4310,175.3558,416.0310,0.0001161,0.99727788,0.0000,04/14.5591/2009,2000,g  9.0,4.0
# From MPC 75710
P/2009 O3 (Hill),e,16.2543,183.7316,154.3585,7.771988,0.0454889,0.68726930,184.0524,06/15.0/2020,2000,g 12.5,4.0
# From MPC 98557
P/2009 Q1 (Hill),e,14.5048,173.9560,157.1139,5.520026,0.0759963,0.49461857,306.1776,06/15.0/2020,2000,g 11.5,4.0
# From MPC112389
P/2009 Q4 (Boattini),e,11.0153,127.4651,320.2273,3.127835,0.1781715,0.58252663,325.2605,06/15.0/2020,2000,g 15.5,4.0
# From MPC 68902
P/2009 Q5 (McNaught),e,40.9617,160.2506,209.0171,7.440005,0.0485673,0.60828311,191.3806,06/15.0/2020,2000,g 10.0,4.0
# From MPC112389
P/2009 T2 (La Sagra),e,27.5295,215.7646,216.4573,7.725444,0.0459007,0.76483842,175.4353,06/15.0/2020,2000,g 14.0,4.0
# From MPC 75711
P/2009 U4 (McNaught),e,10.0818,55.3599,259.8527,5.080608,0.0860658,0.67593438,340.1068,06/15.0/2020,2000,g 14.0,4.0
# From MPC105235
P/2009 WX51 (Catalina),e,9.5957,31.6889,118.0678,3.078744,0.1824499,0.74017237,331.8364,06/15.0/2020,2000,g 19.0,2.0
# From MPC 74247
P/2009 Y2 (Kowalski),e,29.9272,262.0236,172.1988,6.548139,0.0588203,0.63574621,220.8589,06/15.0/2020,2000,g 13.0,4.0
# From MPC 75711
P/2010 A3 (Hill),e,14.8888,64.2437,41.8033,6.074452,0.0658330,0.73296691,245.8566,06/15.0/2020,2000,g 14.0,4.0
# From MPC 72851
P/2010 A5 (LINEAR),e,5.7985,277.6649,307.0888,5.084356,0.0859706,0.66514243,317.9230,06/15.0/2020,2000,g 13.0,4.0
# From MPC105235
P/2010 B2 (WISE),e,8.9305,0.8514,155.9263,3.109833,0.1797208,0.47990606,328.9834,06/15.0/2020,2000,g 17.0,4.0
# From MPC 75008
P/2010 C1 (Scotti),e,9.1285,141.8868,3.8655,7.101904,0.0520765,0.25859970,201.0246,06/15.0/2020,2000,g  9.5,4.0
# From MPC 75008
P/2010 D2 (WISE),e,57.0844,319.8921,120.1392,6.715029,0.0566412,0.45070577,213.4857,06/15.0/2020,2000,g 16.0,4.0
# From MPC 75009
P/2010 E2 (Jarnac),e,15.4156,177.8254,8.3748,8.636720,0.0388312,0.72060458,144.5804,06/15.0/2020,2000,g 14.0,4.0
# From MPC 72851
P/2010 H2 (Vales),e,14.2725,64.2145,128.2882,3.835478,0.1312124,0.19552797,132.4363,06/15.0/2020,2000,g  6.0,4.0
# From MPC 70361
P/2010 H3 (SOHO),e,23.1867,77.2855,25.9611,3.063138,0.1838460,0.98549545,0.0000,02/07.9212/2021,2000,g 20.0,2.0
# From MPC 73463
P/2010 H4 (Scotti),e,2.3195,44.7532,179.5723,6.587533,0.0582935,0.26798747,212.5313,06/15.0/2020,2000,g 10.5,4.0
# From MPC 74637
